0 FENGYUN 1C DEB
1 30372U 99025ACK 13282.18709547  .00005108  00000-0  15197-2 0  8940
2 30372 099.0754 066.6722 0087297 005.2402 072.5650 14.41423965351380
0 FENGYUN 1C DEB
1 30372U 99025ACK 13283.72306343  .00006110  00000-0  18145-2 0  8959
2 30372 099.0753 068.3031 0087243 000.6686 122.9687 14.41435379351602
0 FENGYUN 1C DEB
1 30372U 99025ACK 13283.76867633  .00005508  00000-0  16239-2 0  8960
2 30372 099.0752 068.3513 0087353 000.7909 359.3883 14.41431643351612
0 FENGYUN 1C DEB
1 30372U 99025ACK 13285.37521549  .00004638  00000-0  13808-2 0  8964
2 30372 099.0747 070.0573 0087241 355.7159 056.3855 14.41449206351840
0 FENGYUN 1C DEB
1 30372U 99025ACK 13286.70648280  .00004833  00000-0  14381-2 0  8979
2 30372 099.0746 071.4709 0087215 351.7408 124.6995 14.41459977352031
0 FENGYUN 1C DEB
1 30372U 99025ACK 13288.15823329  .00008324  00000-0  24634-2 0  8981
2 30372 099.0747 073.0127 0087220 347.3878 098.3158 14.41476516352241
0 FENGYUN 1C DEB
1 30372U 99025ACK 13289.19801201  .00007213  00000-0  21366-2 0  8997
2 30372 099.0749 074.1169 0087224 344.2699 094.1362 14.41488875352390
0 FENGYUN 1C DEB
1 30372U 99025ACK 13290.36845883  .00007141  00000-0  21150-2 0  9006
2 30372 099.0753 075.3600 0087201 340.7690 048.0807 14.41500253352561
0 FENGYUN 1C DEB
1 30372U 99025ACK 13292.10951939  .00005605  00000-0  16631-2 0  9012
2 30372 099.0759 077.2093 0087196 335.5677 083.2781 14.41518800352811
0 FENGYUN 1C DEB
1 30372U 99025ACK 13293.35936487  .00006549  00000-0  19395-2 0  9020
2 30372 099.0759 078.5369 0087284 331.8138 089.4135 14.41532467352995
0 FENGYUN 1C DEB
1 30372U 99025ACK 13294.40006228  .00007589  00000-0  22444-2 0  9033
2 30372 099.0760 079.6419 0087285 328.7234 090.1781 14.41542404353144
0 FENGYUN 1C DEB
1 30372U 99025ACK 13295.87773118  .00007385  00000-0  21835-2 0  9042
2 30372 099.0762 081.2118 0087343 324.2928 198.7420 14.41560489353358
